NORAD_CAT_ID,OBJECT_NAME,OBJECT_TYPE,EPOCH,MEAN_MOTION,ECCENTRICITY,INCLINATION,RA_OF_ASC_NODE,ARG_OF_PERICENTER,MEAN_ANOMALY,BSTAR,MEAN_MOTION_DOT,MEAN_MOTION_DDOT,TLE_LINE0,TLE_LINE1,TLE_LINE2,SEMIMAJOR_AXIS,PERIOD,APOGEE,PERIGEE,DECAYED
54091.0,STARLINK-5221,PAYLOAD,2024-08-09 11:58:43,15.08840265,0.000117,53.2162,44.8306,93.1496,266.963,0.00011779,1.587e-05,0.0,0 STARLINK-5221,1 54091U 22136AS  24222.49911396  .00001587  00000-0  11779-3 0  9996,2 54091  53.2162  44.8306 0001170  93.1496 266.9630 15.08840265100323,6917.88,95.438,540.554,538.935,0.0
54091.0,STARLINK-5221,PAYLOAD,2024-08-09 21:31:01,15.08860704,0.0001331,53.2179,43.0432,93.4494,266.665,0.00049922,7.671e-05,0.0,0 STARLINK-5221,1 54091U 22136AS  24222.89654646  .00007671  00000-0  49922-3 0  9993,2 54091  53.2179  43.0432 0001331  93.4494 266.6650 15.08860704 99913,6917.817,95.436,540.603,538.761,0.0
54091.0,STARLINK-5221,PAYLOAD,2024-08-10 11:49:30,15.08837518,0.0001321,53.217,40.3689,82.3204,277.7938,2.4779e-05,1.06e-06,0.0,0 STARLINK-5221,1 54091U 22136AS  24223.49271596  .00000106  00000-0  24779-4 0  9999,2 54091  53.2170  40.3689 0001321  82.3204 277.7938 15.08837518100476,6917.888,95.438,540.667,538.839,0.0
54091.0,STARLINK-5221,PAYLOAD,2024-08-10 16:35:39,15.08843333,0.0001247,53.2173,39.4786,92.1171,267.9963,4.847e-05,4.84e-06,0.0,0 STARLINK-5221,1 54091U 22136AS  24223.69143273  .00000484  00000-0  48470-4 0  9994,2 54091  53.2173  39.4786 0001247  92.1171 267.9963 15.08843333100038,6917.87,95.437,540.598,538.873,0.0
54091.0,STARLINK-5221,PAYLOAD,2024-08-11 18:01:50,15.08847349,0.0001449,53.2159,34.7213,74.2868,285.8284,0.00034772,5.251e-05,0.0,0 STARLINK-5221,1 54091U 22136AS  24224.75127458  .00005251  00000-0  34772-3 0  9995,2 54091  53.2159  34.7213 0001449  74.2868 285.8284 15.08847349100668,6917.858,95.437,540.725,538.721,0.0
54091.0,STARLINK-5221,PAYLOAD,2024-08-11 21:12:36,15.08853786,0.00017,53.2166,34.1255,76.8869,283.2312,0.00047745,7.322e-05,0.0,0 STARLINK-5221,1 54091U 22136AS  24224.88375266  .00007322  00000-0  47745-3 0  9996,2 54091  53.2166  34.1255 0001700  76.8869 283.2312 15.08853786100212,6917.838,95.437,540.879,538.527,0.0
54091.0,STARLINK-5221,PAYLOAD,2024-08-12 11:31:04,15.08843711,0.0001825,53.2129,31.4454,85.8678,274.2522,0.00011904,1.607e-05,0.0,0 STARLINK-5221,1 54091U 22136AS  24225.47991506  .00001607  00000-0  11904-3 0  9991,2 54091  53.2129  31.4454 0001825  85.8678 274.2522 15.08843711100779,6917.869,95.437,540.997,538.472,0.0
54091.0,STARLINK-5221,PAYLOAD,2024-08-12 19:27:59,15.08866025,0.0001385,53.2164,29.9619,89.7149,270.4002,0.00056535,8.727e-05,0.0,0 STARLINK-5221,1 54091U 22136AS  24225.81110538  .00008727  00000-0  56535-3 0  9996,2 54091  53.2164  29.9619 0001385  89.7149 270.4002 15.08866025100820,6917.801,95.436,540.624,538.708,0.0
54091.0,STARLINK-5221,PAYLOAD,2024-08-13 09:46:29,15.08820948,0.0002207,53.2132,27.2833,89.2917,270.8328,-0.00031141,-5.239e-05,0.0,0 STARLINK-5221,1 54091U 22136AS  24226.40728491 -.00005239  00000-0 -31141-3 0  9998,2 54091  53.2132  27.2833 0002207  89.2917 270.8328 15.08820948100915,6917.939,95.439,541.33,538.277,0.0
54091.0,STARLINK-5221,PAYLOAD,2024-08-14 03:15:45,15.08806628,0.0001347,53.2202,24.0148,78.6531,281.4612,-0.00021825,-3.756e-05,0.0,0 STARLINK-5221,1 54091U 22136AS  24227.13594803 -.00003756  00000-0 -21825-3 0  9997,2 54091  53.2202  24.0148 0001347  78.6531 281.4612 15.08806628101021,6917.982,95.44,540.779,538.916,0.0
54091.0,STARLINK-5221,PAYLOAD,2024-08-14 09:37:17,15.08819358,3.29e-05,53.2238,22.8248,264.7797,95.3157,8.466e-05,1.059e-05,0.0,0 STARLINK-5221,1 54091U 22136AS  24227.40090215  .00001059  00000-0  84660-4 0  9994,2 54091  53.2238  22.8248 0000329 264.7797  95.3157 15.08819358101062,6917.943,95.439,540.036,539.581,0.0
54091.0,STARLINK-5221,PAYLOAD,2024-08-14 14:23:26,15.08843544,0.0001197,53.217,21.9336,69.0679,291.0441,0.00042771,6.526e-05,0.0,0 STARLINK-5221,1 54091U 22136AS  24227.59961609  .00006526  00000-0  42771-3 0  9998,2 54091  53.2170  21.9336 0001197  69.0679 291.0441 15.08843544100620,6917.87,95.437,540.563,538.906,0.0
54091.0,STARLINK-5221,PAYLOAD,2024-08-14 17:34:13,15.08847428,0.000115,53.2172,21.3398,62.44,297.6708,0.00051858,7.977e-05,0.0,0 STARLINK-5221,1 54091U 22136AS  24227.73209537  .00007977  00000-0  51858-3 0  9996,2 54091  53.2172  21.3398 0001150  62.4400 297.6708 15.08847428101110,6917.858,95.437,540.518,538.927,0.0
54091.0,STARLINK-5221,PAYLOAD,2024-08-17 12:20:24,15.08838929,0.0001263,53.2184,8.8504,54.1172,305.9937,-0.00013025,-2.36e-05,0.0,0 STARLINK-5221,1 54091U 22136AS  24230.51416924 -.00002360  00000-0 -13025-3 0  9993,2 54091  53.2184   8.8504 0001263  54.1172 305.9937 15.08838929101530,6917.884,95.438,540.622,538.875,0.0
54091.0,STARLINK-5221,PAYLOAD,2024-08-17 20:17:19,15.08828357,0.0001077,53.2189,7.3631,77.3063,282.8049,0.00013226,1.817e-05,0.0,0 STARLINK-5221,1 54091U 22136AS  24230.84536690  .00001817  00000-0  13226-3 0  9999,2 54091  53.2189   7.3631 0001077  77.3063 282.8049 15.08828357101114,6917.916,95.438,540.526,539.036,0.0
54091.0,STARLINK-5221,PAYLOAD,2024-08-18 12:11:10,15.08841539,0.0001181,53.2189,4.3892,78.9993,281.1132,0.00021023,3.06e-05,0.0,0 STARLINK-5221,1 54091U 22136AS  24231.50776113  .00003060  00000-0  21023-3 0  9995,2 54091  53.2189   4.3892 0001181  78.9993 281.1132 15.08841539101689,6917.876,95.437,540.558,538.924,0.0
54091.0,STARLINK-5221,PAYLOAD,2024-08-18 20:08:05,15.08854403,0.0001205,53.2191,2.9027,71.7994,288.3129,0.00033333,5.023e-05,0.0,0 STARLINK-5221,1 54091U 22136AS  24231.83895067  .00005023  00000-0  33333-3 0  9999,2 54091  53.2191   2.9027 0001205  71.7994 288.3129 15.08854403101730,6917.836,95.437,540.535,538.868,0.0
54091.0,STARLINK-5221,PAYLOAD,2024-08-19 12:01:58,15.08842854,0.0001139,53.2183,359.9285,78.6918,281.4202,0.00020656,3.001e-05,0.0,0 STARLINK-5221,1 54091U 22136AS  24232.50136712  .00003001  00000-0  20656-3 0  9997,2 54091  53.2183 359.9285 0001139  78.6918 281.4202 15.08842854101834,6917.872,95.437,540.525,538.949,0.0
54091.0,STARLINK-5221,PAYLOAD,2024-08-19 13:37:21,15.08846049,0.0001132,53.2183,359.6313,77.2035,282.9083,0.00025265,3.736e-05,0.0,0 STARLINK-5221,1 54091U 22136AS  24232.56760573  .00003736  00000-0  25265-3 0  9997,2 54091  53.2183 359.6313 0001132  77.2035 282.9083 15.08846049101373,6917.862,95.437,540.51,538.944,0.0
54091.0,STARLINK-5221,PAYLOAD,2024-08-19 18:23:30,15.08854648,0.000117,53.2182,358.7391,76.953,283.1593,0.00035102,5.305e-05,0.0,0 STARLINK-5221,1 54091U 22136AS  24232.76632263  .00005305  00000-0  35102-3 0  9998,2 54091  53.2182 358.7391 0001170  76.9530 283.1593 15.08854648101874,6917.836,95.437,540.51,538.891,0.0
54091.0,STARLINK-5221,PAYLOAD,2024-08-20 13:28:07,15.08848649,0.0001309,53.2186,355.1712,82.8493,277.2648,0.00036657,5.552e-05,0.0,0 STARLINK-5221,1 54091U 22136AS  24233.56120298  .00005552  00000-0  36657-3 0  9997,2 54091  53.2186 355.1712 0001309  82.8493 277.2648 15.08848649101996,6917.854,95.437,540.624,538.813,0.0
54091.0,STARLINK-5221,PAYLOAD,2024-08-21 13:18:55,15.08842944,0.000154,53.2185,350.7105,105.0469,255.0693,0.00012004,1.623e-05,0.0,0 STARLINK-5221,1 54091U 22136AS  24234.55480413  .00001623  00000-0  12004-3 0  9990,2 54091  53.2185 350.7105 0001540 105.0469 255.0693 15.08842944102144,6917.871,95.437,540.802,538.671,0.0
54091.0,STARLINK-5221,PAYLOAD,2024-08-21 14:54:18,15.08843974,0.0001525,53.2187,350.4138,103.0849,257.0314,0.00011286,1.509e-05,0.0,0 STARLINK-5221,1 54091U 22136AS  24234.62104389  .00001509  00000-0  11286-3 0  9997,2 54091  53.2187 350.4138 0001525 103.0849 257.0314 15.08843974101686,6917.868,95.437,540.788,538.678,0.0
